{
  "type": "FeatureCollection",
  "features": [
    {
      "type": "Feature",
      "properties": {
        "norad_id": 36585,
        "name": "GPS BIIF-1  (PRN 25)",
        "group": "gnss",
        "lat": -33.293833208106676,
        "lon": -171.83898639138312,
        "alt_km": 20283.920688618593,
        "timestamp": "2025-12-06T22:38:42.970849+00:00",
        "meta_object_name": "GPS BIIF-1  (PRN 25)",
        "meta_object_id": "2010-022A",
        "meta_epoch": "2025-12-06T05:55:19.682976",
        "meta_mean_motion": 2.00552783,
        "meta_eccentricity": 0.01258443,
        "meta_inclination": 54.3013,
        "meta_ra_of_asc_node": 216.3359,
        "meta_arg_of_pericenter": 65.0038,
        "meta_mean_anomaly": 110.8352,
        "meta_ephemeris_type": 0,
        "meta_classification_type": "U",
        "meta_norad_cat_id": 36585,
        "meta_element_set_no": 999,
        "meta_rev_at_epoch": 11372,
        "meta_bstar": 0,
        "meta_mean_motion_dot": 5.1e-07,
        "meta_mean_motion_ddot": 0,
        "tle_line1": "1 36585U 10022A   25340.24675559  .00000051  00000+0  00000+0 0  9993",
        "tle_line2": "2 36585  54.3013 216.3359 0125844  65.0038 110.8352  2.00552783113726"
      },
      "geometry": {
        "type": "Point",
        "coordinates": [
          -171.83898639138312,
          -33.293833208106676
        ]
      }
    },
    {
      "type": "Feature",
      "properties": {
        "norad_id": 36828,
        "name": "BEIDOU-2 IGSO-1 (C06)",
        "group": "gnss",
        "lat": -0.7269243649929953,
        "lon": 164.16935907440828,
        "alt_km": 35957.78425833169,
        "timestamp": "2025-12-06T22:38:42.970861+00:00",
        "meta_object_name": "BEIDOU-2 IGSO-1 (C06)",
        "meta_object_id": "2010-036A",
        "meta_epoch": "2025-12-06T10:45:13.811328",
        "meta_mean_motion": 1.00277832,
        "meta_eccentricity": 0.00512425,
        "meta_inclination": 54.2853,
        "meta_ra_of_asc_node": 164.7048,
        "meta_arg_of_pericenter": 215.825,
        "meta_mean_anomaly": 324.072,
        "meta_ephemeris_type": 0,
        "meta_classification_type": "U",
        "meta_norad_cat_id": 36828,
        "meta_element_set_no": 999,
        "meta_rev_at_epoch": 5616,
        "meta_bstar": 0,
        "meta_mean_motion_dot": -5.7e-07,
        "meta_mean_motion_ddot": 0,
        "tle_line1": "1 36828U 10036A   25340.44807652 -.00000057  00000+0  00000+0 0  9998",
        "tle_line2": "2 36828  54.2853 164.7048 0051242 215.8250 324.0720  1.00277832 56169"
      },
      "geometry": {
        "type": "Point",
        "coordinates": [
          164.16935907440828,
          -0.7269243649929953
        ]
      }
    },
    {
      "type": "Feature",
      "properties": {
        "norad_id": 37210,
        "name": "BEIDOU-2 G4 (C04)",
        "group": "gnss",
        "lat": 1.7664138563656444,
        "lon": -144.32411339059337,
        "alt_km": 35752.51467014661,
        "timestamp": "2025-12-06T22:38:42.970874+00:00",
        "meta_object_name": "BEIDOU-2 G4 (C04)",
        "meta_object_id": "2010-057A",
        "meta_epoch": "2025-12-06T11:29:51.700704",
        "meta_mean_motion": 1.00271344,
        "meta_eccentricity": 0.0010962,
        "meta_inclination": 3.1684,
        "meta_ra_of_asc_node": 69.9542,
        "meta_arg_of_pericenter": 189.6484,
        "meta_mean_anomaly": 148.4539,
        "meta_ephemeris_type": 0,
        "meta_classification_type": "U",
        "meta_norad_cat_id": 37210,
        "meta_element_set_no": 999,
        "meta_rev_at_epoch": 5535,
        "meta_bstar": 0,
        "meta_mean_motion_dot": -1.06e-06,
        "meta_mean_motion_ddot": 0,
        "tle_line1": "1 37210U 10057A   25340.47907061 -.00000106  00000+0  00000+0 0  9990",
        "tle_line2": "2 37210   3.1684  69.9542 0010962 189.6484 148.4539  1.00271344 55354"
      },
      "geometry": {
        "type": "Point",
        "coordinates": [
          -144.32411339059337,
          1.7664138563656444
        ]
      }
    },
    {
      "type": "Feature",
      "properties": {
        "norad_id": 37256,
        "name": "BEIDOU-2 IGSO-2 (C07)",
        "group": "gnss",
        "lat": -43.91792240670674,
        "lon": 154.51109198790925,
        "alt_km": 35613.253437962754,
        "timestamp": "2025-12-06T22:38:42.970890+00:00",
        "meta_object_name": "BEIDOU-2 IGSO-2 (C07)",
        "meta_object_id": "2010-068A",
        "meta_epoch": "2025-12-03T17:22:36.030432",
        "meta_mean_motion": 1.0028871,
        "meta_eccentricity": 0.00492335,
        "meta_inclination": 47.9043,
        "meta_ra_of_asc_node": 274.2613,
        "meta_arg_of_pericenter": 216.1442,
        "meta_mean_anomaly": 310.2369,
        "meta_ephemeris_type": 0,
        "meta_classification_type": "U",
        "meta_norad_cat_id": 37256,
        "meta_element_set_no": 999,
        "meta_rev_at_epoch": 5483,
        "meta_bstar": 0,
        "meta_mean_motion_dot": -2.25e-06,
        "meta_mean_motion_ddot": 0,
        "tle_line1": "1 37256U 10068A   25337.72402813 -.00000225  00000+0  00000+0 0  9993",
        "tle_line2": "2 37256  47.9043 274.2613 0049233 216.1442 310.2369  1.00288710 54839"
      },
      "geometry": {
        "type": "Point",
        "coordinates": [
          154.51109198790925,
          -43.91792240670674
        ]
      }
    },
    {
      "type": "Feature",
      "properties": {
        "norad_id": 37384,
        "name": "BEIDOU-2 IGSO-3 (C08)",
        "group": "gnss",
        "lat": 49.34595626069058,
        "lon": -175.94350610405468,
        "alt_km": 35719.654899670175,
        "timestamp": "2025-12-06T22:38:42.970903+00:00",
        "meta_object_name": "BEIDOU-2 IGSO-3 (C08)",
        "meta_object_id": "2011-013A",
        "meta_epoch": "2025-12-03T14:52:09.520896",
        "meta_mean_motion": 1.00272128,
        "meta_eccentricity": 0.00353922,
        "meta_inclination": 62.1308,
        "meta_ra_of_asc_node": 42.005,
        "meta_arg_of_pericenter": 186.5359,
        "meta_mean_anomaly": 174.9093,
        "meta_ephemeris_type": 0,
        "meta_classification_type": "U",
        "meta_norad_cat_id": 37384,
        "meta_element_set_no": 999,
        "meta_rev_at_epoch": 5370,
        "meta_bstar": 0,
        "meta_mean_motion_dot": -1.99e-06,
        "meta_mean_motion_ddot": 0,
        "tle_line1": "1 37384U 11013A   25337.61955464 -.00000199  00000+0  00000+0 0  9999",
        "tle_line2": "2 37384  62.1308  42.0050 0035392 186.5359 174.9093  1.00272128 53708"
      },
      "geometry": {
        "type": "Point",
        "coordinates": [
          -175.94350610405468,
          49.34595626069058
        ]
      }
    },
    {
      "type": "Feature",
      "properties": {
        "norad_id": 37605,
        "name": "GSAT-8 (GAGAN/PRN 127)",
        "group": "gnss",
        "lat": 0.7470455529410048,
        "lon": 110.68940215759535,
        "alt_km": 35820.05802612984,
        "timestamp": "2025-12-06T22:38:42.970929+00:00",
        "meta_object_name": "GSAT-8 (GAGAN/PRN 127)",
        "meta_object_id": "2011-022A",
        "meta_epoch": "2025-12-06T03:39:14.050080",
        "meta_mean_motion": 1.00272373,
        "meta_eccentricity": 0.00091164,
        "meta_inclination": 1.6318,
        "meta_ra_of_asc_node": 84.2605,
        "meta_arg_of_pericenter": 179.169,
        "meta_mean_anomaly": 281.6727,
        "meta_ephemeris_type": 0,
        "meta_classification_type": "U",
        "meta_norad_cat_id": 37605,
        "meta_element_set_no": 999,
        "meta_rev_at_epoch": 5128,
        "meta_bstar": 0,
        "meta_mean_motion_dot": 9.2e-07,
        "meta_mean_motion_ddot": 0,
        "tle_line1": "1 37605U 11022A   25340.15224595  .00000092  00000+0  00000+0 0  9993",
        "tle_line2": "2 37605   1.6318  84.2605 0009116 179.1690 281.6727  1.00272373 51281"
      },
      "geometry": {
        "type": "Point",
        "coordinates": [
          110.68940215759535,
          0.7470455529410048
        ]
      }
    },
    {
      "type": "Feature",
      "properties": {
        "norad_id": 37763,
        "name": "BEIDOU-2 IGSO-4 (C09)",
        "group": "gnss",
        "lat": -12.966315449674111,
        "lon": 157.94830986287292,
        "alt_km": 36030.23430669599,
        "timestamp": "2025-12-06T22:38:42.970944+00:00",
        "meta_object_name": "BEIDOU-2 IGSO-4 (C09)",
        "meta_object_id": "2011-038A",
        "meta_epoch": "2025-12-01T12:32:09.960864",
        "meta_mean_motion": 1.00284074,
        "meta_eccentricity": 0.01487808,
        "meta_inclination": 54.5808,
        "meta_ra_of_asc_node": 167.4476,
        "meta_arg_of_pericenter": 230.2031,
        "meta_mean_anomaly": 315.0387,
        "meta_ephemeris_type": 0,
        "meta_classification_type": "U",
        "meta_norad_cat_id": 37763,
        "meta_element_set_no": 999,
        "meta_rev_at_epoch": 5266,
        "meta_bstar": 0,
        "meta_mean_motion_dot": 1.01e-06,
        "meta_mean_motion_ddot": 0,
        "tle_line1": "1 37763U 11038A   25335.52233751  .00000101  00000+0  00000+0 0  9995",
        "tle_line2": "2 37763  54.5808 167.4476 0148780 230.2031 315.0387  1.00284074 52664"
      },
      "geometry": {
        "type": "Point",
        "coordinates": [
          157.94830986287292,
          -12.966315449674111
        ]
      }
    }
  ]
}